STARLINK-4368           
1 53234U 22084AX  26068.71625589  .00000600  00000+0  51278-4 0  9990
2 53234  97.6053 130.2359 0000892 123.5095 236.6214 15.01259518200335
TOMORROW-S7             
1 63631U 25081B   26068.64931870  .00002135  00000+0  19093-3 0  9990
2 63631  45.3909 132.5570 0000463 121.9907 238.1016 14.99242141 48231
